CCSDS_OMM_VERS,COMMENT,CREATION_DATE,ORIGINATOR,OBJECT_NAME,OBJECT_ID,CENTER_NAME,REF_FRAME,TIME_SYSTEM,MEAN_ELEMENT_THEORY,EPOCH,MEAN_MOTION,ECCENTRICITY,INCLINATION,RA_OF_ASC_NODE,ARG_OF_PERICENTER,MEAN_ANOMALY,EPHEMERIS_TYPE,CLASSIFICATION_TYPE,NORAD_CAT_ID,ELEMENT_SET_NO,REV_AT_EPOCH,BSTAR,MEAN_MOTION_DOT,MEAN_MOTION_DDOT,SEMIMAJOR_AXIS,PERIOD,APOAPSIS,PERIAPSIS,OBJECT_TYPE,RCS_SIZE,COUNTRY_CODE,LAUNCH_DATE,SITE,DECAY_DATE,FILE,GP_ID,TLE_LINE0,TLE_LINE1,TLE_LINE2
2,GENERATED VIA SPACE-TRACK.ORG API,2021-07-21T02:37:27,18 SPCS,STARLINK-1098,2020-001D,EARTH,TEME,UTC,SGP4,2021-07-20T19:29:17.201760,15.06404524,0.0001585,53.0568,26.2489,95.0137,265.1033,0,U,44917,999,8469,8.3374e-05,9.61e-06,0,6925.335,95.592,548.297,546.102,PAYLOAD,LARGE,US,2020-01-07,AFETR,,3080460,181232727,0 STARLINK-1098,1 44917U 20001D   21201.81200465  .00000961  00000-0  83374-4 0  9995,2 44917  53.0568  26.2489 0001585  95.0137 265.1033 15.06404524 84697
2,GENERATED VIA SPACE-TRACK.ORG API,2021-07-21T02:46:10,18 SPCS,STARLINK-1098,2020-001D,EARTH,TEME,UTC,SGP4,2021-07-20T19:29:17.201760,15.06404524,0.0001585,53.0568,26.2489,95.0137,265.1033,0,U,44917,999,8469,8.3374e-05,9.61e-06,0,6925.335,95.592,548.297,546.102,PAYLOAD,LARGE,US,2020-01-07,AFETR,,3080499,181237216,0 STARLINK-1098,1 44917U 20001D   21201.81200465  .00000961  00000-0  83374-4 0  9995,2 44917  53.0568  26.2489 0001585  95.0137 265.1033 15.06404524 84697
2,GENERATED VIA SPACE-TRACK.ORG API,2021-07-21T15:06:11,18 SPCS,STARLINK-1098,2020-001D,EARTH,TEME,UTC,SGP4,2021-07-21T05:02:30.475680,15.06413489,0.0001568,53.0567,24.4618,95.1054,265.0114,0,U,44917,999,8475,0.00014515,1.882e-05,0,6925.307,95.591,548.258,546.086,PAYLOAD,LARGE,US,2020-01-07,AFETR,,3081063,181249846,0 STARLINK-1098,1 44917U 20001D   21202.21007495  .00001882  00000-0  14515-3 0  9991,2 44917  53.0567  24.4618 0001568  95.1054 265.0114 15.06413489 84756
2,GENERATED VIA SPACE-TRACK.ORG API,2021-07-21T19:44:27,18 SPCS,STARLINK-1098,2020-001D,EARTH,TEME,UTC,SGP4,2021-07-21T13:00:11.921760,15.06415727,0.0001572,53.0566,22.9725,95.7819,264.3349,0,U,44917,999,8480,0.00013468,1.726e-05,0,6925.3,95.591,548.254,546.077,PAYLOAD,LARGE,US,2020-01-07,AFETR,,3081142,181270535,0 STARLINK-1098,1 44917U 20001D   21202.54180465  .00001726  00000-0  13468-3 0  9999,2 44917  53.0566  22.9725 0001572  95.7819 264.3349 15.06415727 84802
2,GENERATED VIA SPACE-TRACK.ORG API,2021-07-22T03:57:53,18 SPCS,STARLINK-1098,2020-001D,EARTH,TEME,UTC,SGP4,2021-07-21T19:22:21.711936,15.06408412,0.0001509,53.0567,21.7812,97.417,262.699,0,U,44917,999,8484,6.0203e-05,6.16e-06,0,6925.323,95.592,548.233,546.143,PAYLOAD,LARGE,US,2020-01-07,AFETR,,3081362,181298534,0 STARLINK-1098,1 44917U 20001D   21202.80719574  .00000616  00000-0  60203-4 0  9994,2 44917  53.0567  21.7812 0001509  97.4170 262.6990 15.06408412 84846
2,GENERATED VIA SPACE-TRACK.ORG API,2021-07-22T06:56:11,18 SPCS,STARLINK-1098,2020-001D,EARTH,TEME,UTC,SGP4,2021-07-22T00:08:58.958880,15.06405568,0.0001517,53.0568,20.8877,92.4307,267.6856,0,U,44917,999,8487,3.1129e-05,1.82e-06,0,6925.331,95.592,548.247,546.146,PAYLOAD,LARGE,US,2020-01-07,AFETR,,3081496,181305401,0 STARLINK-1098,1 44917U 20001D   21203.00623795  .00000182  00000-0  31129-4 0  9999,2 44917  53.0568  20.8877 0001517  92.4307 267.6856 15.06405568 84872
2,GENERATED VIA SPACE-TRACK.ORG API,2021-07-22T18:01:50,18 SPCS,STARLINK-1098,2020-001D,EARTH,TEME,UTC,SGP4,2021-07-22T04:55:36.306048,15.06401596,0.000156,53.0568,19.994,94.4052,265.7115,0,U,44917,999,8490,-1.2977e-05,-4.75e-06,0,6925.344,95.592,548.289,546.128,PAYLOAD,LARGE,US,2020-01-07,AFETR,,3081746,181330648,0 STARLINK-1098,1 44917U 20001D   21203.20528132 -.00000475  00000-0 -12977-4 0  9997,2 44917  53.0568  19.9940 0001560  94.4052 265.7115 15.06401596 84907
2,GENERATED VIA SPACE-TRACK.ORG API,2021-07-22T22:56:10,18 SPCS,STARLINK-1098,2020-001D,EARTH,TEME,UTC,SGP4,2021-07-22T17:39:56.359872,15.06388228,0.0001474,53.0566,17.6119,93.4999,266.6159,0,U,44917,999,8498,-0.00014668,-2.465e-05,0,6925.385,95.593,548.27,546.229,PAYLOAD,LARGE,US,2020-01-07,AFETR,,3081897,181337387,0 STARLINK-1098,1 44917U 20001D   21203.73606898 -.00002465  00000-0 -14668-3 0  9990,2 44917  53.0566  17.6119 0001474  93.4999 266.6159 15.06388228 84983
2,GENERATED VIA SPACE-TRACK.ORG API,2021-07-23T04:35:57,18 SPCS,STARLINK-1098,2020-001D,EARTH,TEME,UTC,SGP4,2021-07-22T19:15:28.595520,15.06390032,0.0001482,53.0566,17.314,93.8168,266.2991,0,U,44917,999,8499,-0.00012989,-2.215e-05,0,6925.379,95.593,548.27,546.218,PAYLOAD,LARGE,US,2020-01-07,AFETR,,3081921,181357334,0 STARLINK-1098,1 44917U 20001D   21203.80241430 -.00002215  00000-0 -12989-3 0  9992,2 44917  53.0566  17.3140 0001482  93.8168 266.2991 15.06390032 84992
2,GENERATED VIA SPACE-TRACK.ORG API,2021-07-23T17:49:06,18 SPCS,STARLINK-1098,2020-001D,EARTH,TEME,UTC,SGP4,2021-07-23T12:46:24.297888,15.06397319,0.0001414,53.0566,14.0369,100.8589,259.2559,0,U,44917,999,8510,-0.00015454,-2.582e-05,0,6925.357,95.592,548.201,546.243,PAYLOAD,LARGE,US,2020-01-07,AFETR,,3082068,181384309,0 STARLINK-1098,1 44917U 20001D   21204.53222567 -.00002582  00000-0 -15454-3 0  9990,2 44917  53.0566  14.0369 0001414 100.8589 259.2559 15.06397319 85101
2,GENERATED VIA SPACE-TRACK.ORG API,2021-07-24T03:39:08,18 SPCS,STARLINK-1098,2020-001D,EARTH,TEME,UTC,SGP4,2021-07-23T19:08:33.789984,15.06397237,0.0001287,53.0568,12.8456,99.4243,260.6892,0,U,44917,999,8514,-0.00015517,-2.592e-05,0,6925.357,95.592,548.113,546.331,PAYLOAD,LARGE,US,2020-01-07,AFETR,,3082281,181412144,0 STARLINK-1098,1 44917U 20001D   21204.79761331 -.00002592  00000-0 -15517-3 0  9996,2 44917  53.0568  12.8456 0001287  99.4243 260.6892 15.06397237 85143
2,GENERATED VIA SPACE-TRACK.ORG API,2021-07-24T17:39:08,18 SPCS,STARLINK-1098,2020-001D,EARTH,TEME,UTC,SGP4,2021-07-24T04:41:48.107616,15.06390286,0.0001277,53.0568,11.0586,104.0833,256.0298,0,U,44917,999,8520,-2.8572e-05,-7.07e-06,0,6925.378,95.593,548.128,546.359,PAYLOAD,LARGE,US,2020-01-07,AFETR,,3082525,181440378,0 STARLINK-1098,1 44917U 20001D   21205.19569569 -.00000707  00000-0 -28572-4 0  9992,2 44917  53.0568  11.0586 0001277 104.0833 256.0298 15.06390286 85208
2,GENERATED VIA SPACE-TRACK.ORG API,2021-07-24T23:06:11,18 SPCS,STARLINK-1098,2020-001D,EARTH,TEME,UTC,SGP4,2021-07-24T20:37:12.156672,15.06385722,0.0001228,53.0569,8.0808,101.8575,258.2552,0,U,44917,999,8530,7.6334e-05,8.55e-06,0,6925.392,95.593,548.108,546.407,PAYLOAD,LARGE,US,2020-01-07,AFETR,,3082643,181447124,0 STARLINK-1098,1 44917U 20001D   21205.85916848  .00000855  00000-0  76334-4 0  9992,2 44917  53.0569   8.0808 0001228 101.8575 258.2552 15.06385722 85303
2,GENERATED VIA SPACE-TRACK.ORG API,2021-07-25T17:52:28,18 SPCS,STARLINK-1098,2020-001D,EARTH,TEME,UTC,SGP4,2021-07-24T22:12:44.495136,15.06386696,0.0001222,53.057,7.783,101.5088,258.6038,0,U,44917,999,8531,8.3562e-05,9.63e-06,0,6925.389,95.593,548.101,546.408,PAYLOAD,LARGE,US,2020-01-07,AFETR,,3082986,181474103,0 STARLINK-1098,1 44917U 20001D   21205.92551499  .00000963  00000-0  83562-4 0  9998,2 44917  53.0570   7.7830 0001222 101.5088 258.6038 15.06386696 85311
2,GENERATED VIA SPACE-TRACK.ORG API,2021-07-26T02:31:09,18 SPCS,STARLINK-1098,2020-001D,EARTH,TEME,UTC,SGP4,2021-07-25T20:30:17.691552,15.06393294,0.0001197,53.057,3.6134,101.5592,258.5532,0,U,44917,999,8545,8.0943e-05,9.24e-06,0,6925.369,95.593,548.063,546.405,PAYLOAD,LARGE,US,2020-01-07,AFETR,,3083115,181500488,0 STARLINK-1098,1 44917U 20001D   21206.85437143  .00000924  00000-0  80943-4 0  9997,2 44917  53.0570   3.6134 0001197 101.5592 258.5532 15.06393294 85459
2,GENERATED VIA SPACE-TRACK.ORG API,2021-07-26T06:56:11,18 SPCS,STARLINK-1098,2020-001D,EARTH,TEME,UTC,SGP4,2021-07-25T22:05:50.061984,15.06393513,0.0001188,53.057,3.3155,101.42,258.6923,0,U,44917,999,8546,8.1139e-05,9.27e-06,0,6925.368,95.593,548.056,546.411,PAYLOAD,LARGE,US,2020-01-07,AFETR,,3083245,181507237,0 STARLINK-1098,1 44917U 20001D   21206.92071831  .00000927  00000-0  81139-4 0  9994,2 44917  53.0570   3.3155 0001188 101.4200 258.6923 15.06393513 85464
2,GENERATED VIA SPACE-TRACK.ORG API,2021-07-26T18:18:01,18 SPCS,STARLINK-1098,2020-001D,EARTH,TEME,UTC,SGP4,2021-07-26T12:25:41.156544,15.06398228,0.000115,53.057,0.6351,101.4591,258.6527,0,U,44917,999,8555,8.6926e-05,1.014e-05,0,6925.354,95.592,548.015,546.423,PAYLOAD,LARGE,US,2020-01-07,AFETR,,3083474,181532659,0 STARLINK-1098,1 44917U 20001D   21207.51783746  .00001014  00000-0  86926-4 0  9992,2 44917  53.0570   0.6351 0001150 101.4591 258.6527 15.06398228 85552
2,GENERATED VIA SPACE-TRACK.ORG API,2021-07-27T06:46:11,18 SPCS,STARLINK-1098,2020-001D,EARTH,TEME,UTC,SGP4,2021-07-26T18:47:50.487072,15.06400801,0.0001145,53.057,359.4437,101.1114,259.0004,0,U,44917,999,8559,8.4297e-05,9.74e-06,0,6925.346,95.592,548.004,546.418,PAYLOAD,LARGE,US,2020-01-07,AFETR,,3083809,181542729,0 STARLINK-1098,1 44917U 20001D   21207.78322323  .00000974  00000-0  84297-4 0  9994,2 44917  53.0570 359.4437 0001145 101.1114 259.0004 15.06400801 85594
2,GENERATED VIA SPACE-TRACK.ORG API,2021-07-27T20:16:45,18 SPCS,STARLINK-1098,2020-001D,EARTH,TEME,UTC,SGP4,2021-07-27T12:18:47.718720,15.06387552,0.0001214,53.0571,356.1679,101.7944,258.3181,0,U,44917,999,8570,-7.5508e-05,-1.405e-05,0,6925.387,95.593,548.092,546.411,PAYLOAD,LARGE,US,2020-01-07,AFETR,,3084099,181568498,0 STARLINK-1098,1 44917U 20001D   21208.51305230 -.00001405  00000-0 -75508-4 0  9991,2 44917  53.0571 356.1679 0001214 101.7944 258.3181 15.06387552 85709
2,GENERATED VIA SPACE-TRACK.ORG API,2021-07-27T23:06:10,18 SPCS,STARLINK-1098,2020-001D,EARTH,TEME,UTC,SGP4,2021-07-27T17:05:24.887040,15.06386998,0.0001183,53.0572,355.2752,94.1247,265.9878,0,U,44917,999,8573,-4.6712e-05,-9.77e-06,0,6925.388,95.593,548.073,546.434,PAYLOAD,LARGE,US,2020-01-07,AFETR,,3084290,181576849,0 STARLINK-1098,1 44917U 20001D   21208.71209360 -.00000977  00000-0 -46712-4 0  9998,2 44917  53.0572 355.2752 0001183  94.1247 265.9878 15.06386998 85731
